0 SL-16 DEB
1 22395U 92093CL  13282.14579765  .00002127  00000-0  10694-2 0  4397
2 22395 071.1536 271.5355 0091573 158.4674 301.9321 14.15407178 60298
0 SL-16 DEB
1 22395U 92093CL  13284.19620034  .00002648  00000-0  13252-2 0  4403
2 22395 071.1542 267.2620 0091523 155.3029 309.7003 14.15413252 60582
0 SL-16 DEB
1 22395U 92093CL  13286.46515442  .00002058  00000-0  10349-2 0  4411
2 22395 071.1538 262.5302 0091439 151.6321 351.3229 14.15421839 60901
0 SL-16 DEB
1 22395U 92093CL  13289.14283550  .00003064  00000-0  15292-2 0  4422
2 22395 071.1540 256.9456 0091440 147.3449 315.7052 14.15435669 61282
0 SL-16 DEB
1 22395U 92093CL  13291.19100258  .00003033  00000-0  15138-2 0  4439
2 22395 071.1544 252.6739 0091430 143.9945 312.5039 14.15446515 61579
0 SL-16 DEB
1 22395U 92093CL  13293.31452571  .00004002  00000-0  19892-2 0  4442
2 22395 071.1543 248.2451 0091503 140.4914 333.4140 14.15458005 61874
0 SL-16 DEB
1 22395U 92093CL  13296.13755477  .00004200  00000-0  20860-2 0  4454
2 22395 071.1539 242.3578 0091554 135.8342 318.9655 14.15474428 62274
